0 FENGYUN 1C DEB
1 29735U 99025Z   13282.75475887  .00000386  00000-0  78960-3 0  9550
2 29735 099.3785 204.5624 0733609 201.1826 221.7936 12.64397269310373
0 FENGYUN 1C DEB
1 29735U 99025Z   13284.02202787  .00000544  00000-0  10871-2 0  9562
2 29735 099.3787 205.5978 0733603 198.4153 230.1996 12.64398671310539
0 FENGYUN 1C DEB
1 29735U 99025Z   13285.38118703  .00000514  00000-0  10302-2 0  9573
2 29735 099.3791 206.7081 0733601 195.4494 296.8794 12.64400078310704
0 FENGYUN 1C DEB
1 29735U 99025Z   13286.71396771  .00000641  00000-0  12684-2 0  9581
2 29735 099.3793 207.7969 0733603 192.5396 243.4991 12.64401207310873
0 FENGYUN 1C DEB
1 29735U 99025Z   13288.05898333  .00000877  00000-0  17123-2 0  9596
2 29735 099.3796 208.8958 0733614 189.6059 245.8123 12.64403993311048
0 FENGYUN 1C DEB
1 29735U 99025Z   13289.26406667  .00000751  00000-0  14754-2 0  9605
2 29735 099.3796 209.8802 0733649 186.9761 331.1854 12.64406030311196
0 FENGYUN 1C DEB
1 29735U 99025Z   13291.24394735  .00000848  00000-0  16568-2 0  9611
2 29735 099.3796 211.4980 0733697 182.6562 343.3499 12.64408809311441
0 FENGYUN 1C DEB
1 29735U 99025Z   13292.34219994  .00000910  00000-0  17727-2 0  9625
2 29735 099.3796 212.3954 0733723 180.2604 302.4658 12.64410625311580
0 FENGYUN 1C DEB
1 29735U 99025Z   13293.37095065  .00000981  00000-0  19054-2 0  9634
2 29735 099.3796 213.2361 0733750 178.0154 305.2242 12.64412424311711
0 FENGYUN 1C DEB
1 29735U 99025Z   13294.70466223  .00001023  00000-0  19840-2 0  9642
2 29735 099.3797 214.3259 0733790 175.1050 256.1392 12.64415095311882
0 FENGYUN 1C DEB
1 29735U 99025Z   13295.73159847  .00001058  00000-0  20487-2 0  9655
2 29735 099.3795 215.1648 0733846 172.8651 250.6544 12.64417248312010
